ONEWEB-0210             
1 48787U 21045W   24312.44584187 -.00000085  00000+0 -25984-3 0  9994
2 48787  87.9108  15.9742 0002622  92.4460 267.6970 13.15549411167177
ONEWEB-0214             
1 48788U 21045X   24312.45534656  .00000025  00000+0  33154-4 0  9993
2 48788  87.9110  15.9614 0002419  98.2549 261.8855 13.15549854168265
ONEWEB-0221             
1 48789U 21045Y   24312.61379975  .00000158  00000+0  38511-3 0  9991
2 48789  87.9111  15.9518 0001821  92.1726 267.9613 13.15549736167252
ONEWEB-0213             
1 48790U 21045Z   24312.45059053 -.00000027  00000+0 -10573-3 0  9992
2 48790  87.9108  15.9953 0002035  91.2447 268.8917 13.15550735167293
ONEWEB-0212             
1 48791U 21045AA  24312.65578997  .00000064  00000+0  13566-3 0  9992
2 48791  87.9112  15.9401 0001738  98.0538 262.0790 13.15550115167312
ONEWEB-0227             
1 48792U 21045AB  24312.57894018  .00000053  00000+0  10758-3 0  9997
2 48792  87.9112  15.9696 0001836  93.4872 266.6468 13.15549384167259
ONEWEB-0226             
1 48793U 21045AC  24312.42048491  .00000042  00000+0  78082-4 0  9991
2 48793  87.9112  16.0066 0002205  92.5069 267.6313 13.15546505167209
ONEWEB-0224             
1 48794U 21045AD  24312.61220845 -.00000286  00000+0 -79435-3 0  9992
2 48794  87.9116  15.9955 0001470  69.8707 290.2581 13.15553415167159
